[{"OBJECT_NAME":"STARLINK-30601","OBJECT_ID":"2023-161W","EPOCH":"2026-03-09T12:42:11.495808","MEAN_MOTION":15.30185699,"ECCENTRICITY":0.00013271,"INCLINATION":53.1609,"RA_OF_ASC_NODE":166.5167,"ARG_OF_PERICENTER":107.1265,"MEAN_ANOMALY":252.9881,"EPHEMERIS_TYPE":0,"CLASSIFICATION_TYPE":"U","NORAD_CAT_ID":58117,"ELEMENT_SET_NO":999,"REV_AT_EPOCH":13439,"BSTAR":7.55006e-7,"MEAN_MOTION_DOT":-3.37e-6,"MEAN_MOTION_DDOT":0},{"OBJECT_NAME":"BANDWAGON-2 OBJECT D","OBJECT_ID":"2024-247D","EPOCH":"2026-03-09T12:32:33.670752","MEAN_MOTION":15.29076102,"ECCENTRICITY":0.00034883,"INCLINATION":44.9954,"RA_OF_ASC_NODE":115.671,"ARG_OF_PERICENTER":351.1453,"MEAN_ANOMALY":8.9368,"EPHEMERIS_TYPE":0,"CLASSIFICATION_TYPE":"U","NORAD_CAT_ID":62380,"ELEMENT_SET_NO":999,"REV_AT_EPOCH":6773,"BSTAR":0.00040119131,"MEAN_MOTION_DOT":0.00011259,"MEAN_MOTION_DDOT":0}]
