STARLINK-30601          
1 58117U 23161W   26068.52929972 -.00000337  00000+0  75501-6 0  9999
2 58117  53.1609 166.5167 0001327 107.1265 252.9881 15.30185699134397
BANDWAGON-2 OBJECT D    
1 62380U 24247D   26068.52261193  .00011259  00000+0  40119-3 0  9994
2 62380  44.9954 115.6710 0003488 351.1453   8.9368 15.29076102 67732
